{
  "type": "FeatureCollection",
  "features": [
    {
      "type": "Feature",
      "properties": {
        "OBJECT_NAME": "GONETS-M 21",
        "OBJECT_ID": "2020-091B",
        "EPOCH": "2025-11-29T19:54:09.049824",
        "MEAN_MOTION": 12.42877398,
        "ECCENTRICITY": 0.0013722,
        "INCLINATION": 82.4977,
        "RA_OF_ASC_NODE": 65.1888,
        "ARG_OF_PERICENTER": 267.4417,
        "MEAN_ANOMALY": 92.5092,
        "EPHEMERIS_TYPE": 0,
        "CLASSIFICATION_TYPE": "U",
        "NORAD_CAT_ID": 47228,
        "ELEMENT_SET_NO": 999,
        "REV_AT_EPOCH": 22630,
        "BSTAR": 5.6964e-05,
        "MEAN_MOTION_DOT": 1.8e-07,
        "MEAN_MOTION_DDOT": 0,
        "norad_id": 47228,
        "name": "GONETS-M 21",
        "group": "active",
        "longitude_deg": NaN,
        "latitude_deg": NaN,
        "alt_km": NaN,
        "orbit_class": "HEO",
        "timestamp": "2025-11-30T05:40:21.626546+00:00"
      },
      "geometry": {
        "type": "Point",
        "coordinates": [
          NaN,
          NaN
        ]
      }
    },
    {
      "type": "Feature",
      "properties": {
        "OBJECT_NAME": "GONETS-M 22",
        "OBJECT_ID": "2020-091C",
        "EPOCH": "2025-11-29T21:12:12.628800",
        "MEAN_MOTION": 12.4286506,
        "ECCENTRICITY": 0.0020907,
        "INCLINATION": 82.5035,
        "RA_OF_ASC_NODE": 65.9606,
        "ARG_OF_PERICENTER": 248.4236,
        "MEAN_ANOMALY": 111.4616,
        "EPHEMERIS_TYPE": 0,
        "CLASSIFICATION_TYPE": "U",
        "NORAD_CAT_ID": 47229,
        "ELEMENT_SET_NO": 999,
        "REV_AT_EPOCH": 22626,
        "BSTAR": 5.9316e-06,
        "MEAN_MOTION_DOT": 1.1e-07,
        "MEAN_MOTION_DDOT": 0,
        "norad_id": 47229,
        "name": "GONETS-M 22",
        "group": "active",
        "longitude_deg": NaN,
        "latitude_deg": NaN,
        "alt_km": NaN,
        "orbit_class": "HEO",
        "timestamp": "2025-11-30T05:40:21.626552+00:00"
      },
      "geometry": {
        "type": "Point",
        "coordinates": [
          NaN,
          NaN
        ]
      }
    },
    {
      "type": "Feature",
      "properties": {
        "OBJECT_NAME": "COSMOS 2548",
        "OBJECT_ID": "2020-091D",
        "EPOCH": "2025-11-29T20:43:19.403328",
        "MEAN_MOTION": 12.42924685,
        "ECCENTRICITY": 0.0014062,
        "INCLINATION": 82.5012,
        "RA_OF_ASC_NODE": 65.6256,
        "ARG_OF_PERICENTER": 267.1264,
        "MEAN_ANOMALY": 92.8207,
        "EPHEMERIS_TYPE": 0,
        "CLASSIFICATION_TYPE": "U",
        "NORAD_CAT_ID": 47230,
        "ELEMENT_SET_NO": 999,
        "REV_AT_EPOCH": 22629,
        "BSTAR": -1.4158e-05,
        "MEAN_MOTION_DOT": 8e-08,
        "MEAN_MOTION_DDOT": 0,
        "norad_id": 47230,
        "name": "COSMOS 2548",
        "group": "active",
        "longitude_deg": NaN,
        "latitude_deg": NaN,
        "alt_km": NaN,
        "orbit_class": "HEO",
        "timestamp": "2025-11-30T05:40:21.626560+00:00"
      },
      "geometry": {
        "type": "Point",
        "coordinates": [
          NaN,
          NaN
        ]
      }
    },
    {
      "type": "Feature",
      "properties": {
        "OBJECT_NAME": "GAOFEN-14 01",
        "OBJECT_ID": "2020-092A",
        "EPOCH": "2025-11-29T21:08:15.976608",
        "MEAN_MOTION": 15.25282342,
        "ECCENTRICITY": 0.000128,
        "INCLINATION": 97.2501,
        "RA_OF_ASC_NODE": 40.9959,
        "ARG_OF_PERICENTER": 103.058,
        "MEAN_ANOMALY": 257.0802,
        "EPHEMERIS_TYPE": 0,
        "CLASSIFICATION_TYPE": "U",
        "NORAD_CAT_ID": 47231,
        "ELEMENT_SET_NO": 999,
        "REV_AT_EPOCH": 27744,
        "BSTAR": 0.00033197,
        "MEAN_MOTION_DOT": 8.287e-05,
        "MEAN_MOTION_DDOT": 0,
        "norad_id": 47231,
        "name": "GAOFEN-14 01",
        "group": "active",
        "longitude_deg": NaN,
        "latitude_deg": NaN,
        "alt_km": NaN,
        "orbit_class": "HEO",
        "timestamp": "2025-11-30T05:40:21.626566+00:00"
      },
      "geometry": {
        "type": "Point",
        "coordinates": [
          NaN,
          NaN
        ]
      }
    },
    {
      "type": "Feature",
      "properties": {
        "OBJECT_NAME": "SXM-7",
        "OBJECT_ID": "2020-096A",
        "EPOCH": "2025-11-28T22:03:29.644704",
        "MEAN_MOTION": 1.0027081,
        "ECCENTRICITY": 0.00046482,
        "INCLINATION": 0.0212,
        "RA_OF_ASC_NODE": 80.8763,
        "ARG_OF_PERICENTER": 59.2881,
        "MEAN_ANOMALY": 173.5985,
        "EPHEMERIS_TYPE": 0,
        "CLASSIFICATION_TYPE": "U",
        "NORAD_CAT_ID": 47240,
        "ELEMENT_SET_NO": 999,
        "REV_AT_EPOCH": 543,
        "BSTAR": 0,
        "MEAN_MOTION_DOT": -1.85e-06,
        "MEAN_MOTION_DDOT": 0,
        "norad_id": 47240,
        "name": "SXM-7",
        "group": "active",
        "longitude_deg": NaN,
        "latitude_deg": NaN,
        "alt_km": NaN,
        "orbit_class": "HEO",
        "timestamp": "2025-11-30T05:40:21.626572+00:00"
      },
      "geometry": {
        "type": "Point",
        "coordinates": [
          NaN,
          NaN
        ]
      }
    },
    {
      "type": "Feature",
      "properties": {
        "OBJECT_NAME": "IPM 2 & BREEZE-M R/B",
        "OBJECT_ID": "2020-097A",
        "EPOCH": "2025-11-29T01:47:49.331328",
        "MEAN_MOTION": 0.95298386,
        "ECCENTRICITY": 0.0082934,
        "INCLINATION": 4.8211,
        "RA_OF_ASC_NODE": 79.1791,
        "ARG_OF_PERICENTER": 272.4645,
        "MEAN_ANOMALY": 86.4143,
        "EPHEMERIS_TYPE": 0,
        "CLASSIFICATION_TYPE": "U",
        "NORAD_CAT_ID": 47242,
        "ELEMENT_SET_NO": 999,
        "REV_AT_EPOCH": 1736,
        "BSTAR": 0,
        "MEAN_MOTION_DOT": -1.02e-06,
        "MEAN_MOTION_DDOT": 0,
        "norad_id": 47242,
        "name": "IPM 2 & BREEZE-M R/B",
        "group": "active",
        "longitude_deg": NaN,
        "latitude_deg": NaN,
        "alt_km": NaN,
        "orbit_class": "HEO",
        "timestamp": "2025-11-30T05:40:21.626579+00:00"
      },
      "geometry": {
        "type": "Point",
        "coordinates": [
          NaN,
          NaN
        ]
      }
    },
    {
      "type": "Feature",
      "properties": {
        "OBJECT_NAME": "CMS-01",
        "OBJECT_ID": "2020-099A",
        "EPOCH": "2025-11-29T19:24:15.205248",
        "MEAN_MOTION": 1.00271802,
        "ECCENTRICITY": 0.0008034,
        "INCLINATION": 0.0478,
        "RA_OF_ASC_NODE": 113.5273,
        "ARG_OF_PERICENTER": 148.0969,
        "MEAN_ANOMALY": 181.402,
        "EPHEMERIS_TYPE": 0,
        "CLASSIFICATION_TYPE": "U",
        "NORAD_CAT_ID": 47256,
        "ELEMENT_SET_NO": 999,
        "REV_AT_EPOCH": 1819,
        "BSTAR": 0,
        "MEAN_MOTION_DOT": -1.44e-06,
        "MEAN_MOTION_DDOT": 0,
        "norad_id": 47256,
        "name": "CMS-01",
        "group": "active",
        "longitude_deg": NaN,
        "latitude_deg": NaN,
        "alt_km": NaN,
        "orbit_class": "HEO",
        "timestamp": "2025-11-30T05:40:21.626588+00:00"
      },
      "geometry": {
        "type": "Point",
        "coordinates": [
          NaN,
          NaN
        ]
      }
    },
    {
      "type": "Feature",
      "properties": {
        "OBJECT_NAME": "ONEWEB-0102",
        "OBJECT_ID": "2020-100A",
        "EPOCH": "2025-11-29T13:06:05.423040",
        "MEAN_MOTION": 13.12442145,
        "ECCENTRICITY": 0.0001709,
        "INCLINATION": 87.8947,
        "RA_OF_ASC_NODE": 30.3472,
        "ARG_OF_PERICENTER": 93.7062,
        "MEAN_ANOMALY": 266.4262,
        "EPHEMERIS_TYPE": 0,
        "CLASSIFICATION_TYPE": "U",
        "NORAD_CAT_ID": 47258,
        "ELEMENT_SET_NO": 999,
        "REV_AT_EPOCH": 23854,
        "BSTAR": 0.00075045,
        "MEAN_MOTION_DOT": 2.83e-06,
        "MEAN_MOTION_DDOT": 0,
        "norad_id": 47258,
        "name": "ONEWEB-0102",
        "group": "active",
        "longitude_deg": NaN,
        "latitude_deg": NaN,
        "alt_km": NaN,
        "orbit_class": "HEO",
        "timestamp": "2025-11-30T05:40:21.626595+00:00"
      },
      "geometry": {
        "type": "Point",
        "coordinates": [
          NaN,
          NaN
        ]
      }
    },
    {
      "type": "Feature",
      "properties": {
        "OBJECT_NAME": "ONEWEB-0109",
        "OBJECT_ID": "2020-100B",
        "EPOCH": "2025-11-29T15:07:32.475072",
        "MEAN_MOTION": 13.12442453,
        "ECCENTRICITY": 0.0001763,
        "INCLINATION": 87.8955,
        "RA_OF_ASC_NODE": 30.2983,
        "ARG_OF_PERICENTER": 95.7514,
        "MEAN_ANOMALY": 264.3816,
        "EPHEMERIS_TYPE": 0,
        "CLASSIFICATION_TYPE": "U",
        "NORAD_CAT_ID": 47259,
        "ELEMENT_SET_NO": 999,
        "REV_AT_EPOCH": 23838,
        "BSTAR": 0.00048145,
        "MEAN_MOTION_DOT": 1.86e-06,
        "MEAN_MOTION_DDOT": 0,
        "norad_id": 47259,
        "name": "ONEWEB-0109",
        "group": "active",
        "longitude_deg": NaN,
        "latitude_deg": NaN,
        "alt_km": NaN,
        "orbit_class": "HEO",
        "timestamp": "2025-11-30T05:40:21.626601+00:00"
      },
      "geometry": {
        "type": "Point",
        "coordinates": [
          NaN,
          NaN
        ]
      }
    }
  ]
}